CTC2_L_00624001-01
1 10000U 23284HU  26075.70050926  .00000000  00000+0  00000-0 0  9998
2 10000  70.0000   0.0000 0000000   0.0000   0.0000  4.78387620    16
CTC2_L_00624001-02
1 10001U 23992MM  26075.70050926  .00000000  00000+0  00000-0 0  9995
2 10001  70.0000   0.0000 0000000   0.0000  36.0000  4.78387620    16
CTC2_L_00624001-03
1 10002U 25150WD  26075.70050926  .00000000  00000+0  00000-0 0  9994
2 10002  70.0000   0.0000 0000000   0.0000  72.0000  4.78387620    17
CTC2_L_00624001-04
1 10003U 22556LQ  26075.70050926  .00000000  00000+0  00000-0 0  9992
2 10003  70.0000   0.0000 0000000   0.0000 108.0000  4.78387620    18
CTC2_L_00624001-05
1 10004U 23226WQ  26075.70050926  .00000000  00000+0  00000-0 0  9998
2 10004  70.0000   0.0000 0000000   0.0000 144.0000  4.78387620    19
CTC2_L_00624001-06
1 10005U 25315TV  26075.70050926  .00000000  00000+0  00000-0 0  9990
2 10005  70.0000   0.0000 0000000   0.0000 180.0000  4.78387620    10
CTC2_L_00624001-07
1 10006U 26792RA  26075.70050926  .00000000  00000+0  00000-0 0  9991
2 10006  70.0000   0.0000 0000000   0.0000 216.0000  4.78387620    11
CTC2_L_00624001-08
1 10007U 23094YK  26075.70050926  .00000000  00000+0  00000-0 0  9994
2 10007  70.0000   0.0000 0000000   0.0000 252.0000  4.78387620    12
CTC2_L_00624001-09
1 10008U 24181HH  26075.70050926  .00000000  00000+0  00000-0 0  9993
2 10008  70.0000   0.0000 0000000   0.0000 288.0000  4.78387620    12
CTC2_L_00624001-10
1 10009U 23150HE  26075.70050926  .00000000  00000+0  00000-0 0  9999
2 10009  70.0000   0.0000 0000000   0.0000 324.0000  4.78387620    14
CTC2_L_00624002-01
1 10010U 23547BQ  26075.70050926  .00000000  00000+0  00000-0 0  9991
2 10010  70.0000  30.0000 0000000   0.0000  12.0000  4.78387620    13
CTC2_L_00624002-02
1 10011U 24003ZU  26075.70050926  .00000000  00000+0  00000-0 0  9990
2 10011  70.0000  30.0000 0000000   0.0000  48.0000  4.78387620    13
CTC2_L_00624002-03
1 10012U 24778LQ  26075.70050926  .00000000  00000+0  00000-0 0  9990
2 10012  70.0000  30.0000 0000000   0.0000  84.0000  4.78387620    14
CTC2_L_00624002-04
1 10013U 25997TJ  26075.70050926  .00000000  00000+0  00000-0 0  9995
2 10013  70.0000  30.0000 0000000   0.0000 120.0000  4.78387620    16
CTC2_L_00624002-05
1 10014U 26789MB  26075.70050926  .00000000  00000+0  00000-0 0  9996
2 10014  70.0000  30.0000 0000000   0.0000 156.0000  4.78387620    16
CTC2_L_00624002-06
1 10015U 26060HD  26075.70050926  .00000000  00000+0  00000-0 0  9999
2 10015  70.0000  30.0000 0000000   0.0000 192.0000  4.78387620    17
CTC2_L_00624002-07
1 10016U 24166JL  26075.70050926  .00000000  00000+0  00000-0 0  9995
2 10016  70.0000  30.0000 0000000   0.0000 228.0000  4.78387620    18
CTC2_L_00624002-08
1 10017U 22474EO  26075.70050926  .00000000  00000+0  00000-0 0  9996
2 10017  70.0000  30.0000 0000000   0.0000 264.0000  4.78387620    19
CTC2_L_00624002-09
1 10018U 26719CV  26075.70050926  .00000000  00000+0  00000-0 0  9993
2 10018  70.0000  30.0000 0000000   0.0000 300.0000  4.78387620    11
CTC2_L_00624002-10
1 10019U 22321DU  26075.70050926  .00000000  00000+0  00000-0 0  9999
2 10019  70.0000  30.0000 0000000   0.0000 336.0000  4.78387620    11
CTC2_L_00624003-01
1 10020U 25118ZX  26075.70050926  .00000000  00000+0  00000-0 0  9998
2 10020  70.0000  60.0000 0000000   0.0000  24.0000  4.78387620    10
CTC2_L_00624003-02
1 10021U 22050RL  26075.70050926  .00000000  00000+0  00000-0 0  9991
2 10021  70.0000  60.0000 0000000   0.0000  60.0000  4.78387620    11
CTC2_L_00624003-03
1 10022U 22310NT  26075.70050926  .00000000  00000+0  00000-0 0  9991
2 10022  70.0000  60.0000 0000000   0.0000  96.0000  4.78387620    11
CTC2_L_00624003-04
1 10023U 23096YR  26075.70050926  .00000000  00000+0  00000-0 0  9994
2 10023  70.0000  60.0000 0000000   0.0000 132.0000  4.78387620    13
CTC2_L_00624003-05
1 10024U 26145MU  26075.70050926  .00000000  00000+0  00000-0 0  9993
2 10024  70.0000  60.0000 0000000   0.0000 168.0000  4.78387620    13
CTC2_L_00624003-06
1 10025U 26268AL  26075.70050926  .00000000  00000+0  00000-0 0  9990
2 10025  70.0000  60.0000 0000000   0.0000 204.0000  4.78387620    15
CTC2_L_00624003-07
1 10026U 26731CJ  26075.70050926  .00000000  00000+0  00000-0 0  9996
2 10026  70.0000  60.0000 0000000   0.0000 240.0000  4.78387620    16
CTC2_L_00624003-08
1 10027U 23150RK  26075.70050926  .00000000  00000+0  00000-0 0  9999
2 10027  70.0000  60.0000 0000000   0.0000 276.0000  4.78387620    16
CTC2_L_00624003-09
1 10028U 25387MO  26075.70050926  .00000000  00000+0  00000-0 0  9994
2 10028  70.0000  60.0000 0000000   0.0000 312.0000  4.78387620    18
CTC2_L_00624003-10
1 10029U 22137OS  26075.70050926  .00000000  00000+0  00000-0 0  9995
2 10029  70.0000  60.0000 0000000   0.0000 348.0000  4.78387620    18
CTC2_L_00624004-01
1 10030U 24734NX  26075.70050926  .00000000  00000+0  00000-0 0  9992
2 10030  70.0000  90.0000 0000000   0.0000  36.0000  4.78387620    17
CTC2_L_00624004-02
1 10031U 26632VC  26075.70050926  .00000000  00000+0  00000-0 0  9992
2 10031  70.0000  90.0000 0000000   0.0000  72.0000  4.78387620    18
CTC2_L_00624004-03
1 10032U 26883IT  26075.70050926  .00000000  00000+0  00000-0 0  9991
2 10032  70.0000  90.0000 0000000   0.0000 108.0000  4.78387620    19
CTC2_L_00624004-04
1 10033U 26756UO  26075.70050926  .00000000  00000+0  00000-0 0  9991
2 10033  70.0000  90.0000 0000000   0.0000 144.0000  4.78387620    10
CTC2_L_00624004-05
1 10034U 22333CR  26075.70050926  .00000000  00000+0  00000-0 0  9999
2 10034  70.0000  90.0000 0000000   0.0000 180.0000  4.78387620    11
CTC2_L_00624004-06
1 10035U 24544EG  26075.70050926  .00000000  00000+0  00000-0 0  9996
2 10035  70.0000  90.0000 0000000   0.0000 216.0000  4.78387620    12
CTC2_L_00624004-07
1 10036U 25630P   26075.70050926  .00000000  00000+0  00000-0 0  9994
2 10036  70.0000  90.0000 0000000   0.0000 252.0000  4.78387620    13
CTC2_L_00624004-08
1 10037U 26610DI  26075.70050926  .00000000  00000+0  00000-0 0  9994
2 10037  70.0000  90.0000 0000000   0.0000 288.0000  4.78387620    13
CTC2_L_00624004-09
1 10038U 23695AF  26075.70050926  .00000000  00000+0  00000-0 0  9995
2 10038  70.0000  90.0000 0000000   0.0000 324.0000  4.78387620    15
CTC2_L_00624004-10
1 10039U 25474KH  26075.70050926  .00000000  00000+0  00000-0 0  9993
2 10039  70.0000  90.0000 0000000   0.0000   0.0000  4.78387620    17
CTC2_L_00624005-01
1 10040U 23536CD  26075.70050926  .00000000  00000+0  00000-0 0  9992
2 10040  70.0000 120.0000 0000000   0.0000  48.0000  4.78387620    15
CTC2_L_00624005-02
1 10041U 24928DW  26075.70050926  .00000000  00000+0  00000-0 0  9999
2 10041  70.0000 120.0000 0000000   0.0000  84.0000  4.78387620    16
CTC2_L_00624005-03
1 10042U 25575IH  26075.70050926  .00000000  00000+0  00000-0 0  9999
2 10042  70.0000 120.0000 0000000   0.0000 120.0000  4.78387620    18
CTC2_L_00624005-04
1 10043U 22535OG  26075.70050926  .00000000  00000+0  00000-0 0  9993
2 10043  70.0000 120.0000 0000000   0.0000 156.0000  4.78387620    18
CTC2_L_00624005-05
1 10044U 23853KH  26075.70050926  .00000000  00000+0  00000-0 0  9998
2 10044  70.0000 120.0000 0000000   0.0000 192.0000  4.78387620    19
CTC2_L_00624005-06
1 10045U 24055DA  26075.70050926  .00000000  00000+0  00000-0 0  9994
2 10045  70.0000 120.0000 0000000   0.0000 228.0000  4.78387620    10
CTC2_L_00624005-07
1 10046U 23373HO  26075.70050926  .00000000  00000+0  00000-0 0  9997
2 10046  70.0000 120.0000 0000000   0.0000 264.0000  4.78387620    11
CTC2_L_00624005-08
1 10047U 26369JG  26075.70050926  .00000000  00000+0  00000-0 0  9996
2 10047  70.0000 120.0000 0000000   0.0000 300.0000  4.78387620    13
CTC2_L_00624005-09
1 10048U 24676JO  26075.70050926  .00000000  00000+0  00000-0 0  9996
2 10048  70.0000 120.0000 0000000   0.0000 336.0000  4.78387620    13
CTC2_L_00624005-10
1 10049U 26013FB  26075.70050926  .00000000  00000+0  00000-0 0  9994
2 10049  70.0000 120.0000 0000000   0.0000  12.0000  4.78387620    15
CTC2_L_00624006-01
1 10050U 22081IK  26075.70050926  .00000000  00000+0  00000-0 0  9997
2 10050  70.0000 150.0000 0000000   0.0000  60.0000  4.78387620    13
CTC2_L_00624006-02
1 10051U 24683YT  26075.70050926  .00000000  00000+0  00000-0 0  9998
2 10051  70.0000 150.0000 0000000   0.0000  96.0000  4.78387620    13
CTC2_L_00624006-03
1 10052U 22562EG  26075.70050926  .00000000  00000+0  00000-0 0  9993
2 10052  70.0000 150.0000 0000000   0.0000 132.0000  4.78387620    15
CTC2_L_00624006-04
1 10053U 22279SB  26075.70050926  .00000000  00000+0  00000-0 0  9999
2 10053  70.0000 150.0000 0000000   0.0000 168.0000  4.78387620    15
CTC2_L_00624006-05
1 10054U 25749DT  26075.70050926  .00000000  00000+0  00000-0 0  9995
2 10054  70.0000 150.0000 0000000   0.0000 204.0000  4.78387620    17
CTC2_L_00624006-06
1 10055U 25573P   26075.70050926  .00000000  00000+0  00000-0 0  9991
2 10055  70.0000 150.0000 0000000   0.0000 240.0000  4.78387620    18
CTC2_L_00624006-07
1 10056U 23807MH  26075.70050926  .00000000  00000+0  00000-0 0  9990
2 10056  70.0000 150.0000 0000000   0.0000 276.0000  4.78387620    18
CTC2_L_00624006-08
1 10057U 23424OG  26075.70050926  .00000000  00000+0  00000-0 0  9996
2 10057  70.0000 150.0000 0000000   0.0000 312.0000  4.78387620    10
CTC2_L_00624006-09
1 10058U 24910LP  26075.70050926  .00000000  00000+0  00000-0 0  9998
2 10058  70.0000 150.0000 0000000   0.0000 348.0000  4.78387620    10
CTC2_L_00624006-10
1 10059U 23468FY  26075.70050926  .00000000  00000+0  00000-0 0  9996
2 10059  70.0000 150.0000 0000000   0.0000  24.0000  4.78387620    12
CTC2_L_00624007-01
1 10060U 26027SH  26075.70050926  .00000000  00000+0  00000-0 0  9992
2 10060  70.0000 180.0000 0000000   0.0000  72.0000  4.78387620    10
CTC2_L_00624007-02
1 10061U 23061VO  26075.70050926  .00000000  00000+0  00000-0 0  9998
2 10061  70.0000 180.0000 0000000   0.0000 108.0000  4.78387620    11
